ONEWEB-0410             
1 51622U 22012A   23283.80512159  .00000023  00000+0  25046-4 0  9997
2 51622  87.9197 200.7126 0001870 113.7647 246.3680 13.17649105 84594
ONEWEB-0411             
1 51623U 22012B   23283.88830389 -.00000661  00000+0 -19286-2 0  9991
2 51623  87.8885 230.9149 0001677  71.9969 288.1341 13.10373588 80906
ONEWEB-0415             
1 51624U 22012C   23284.34319983 -.00000579  00000+0 -16945-2 0  9993
2 51624  87.8889 230.8520 0001661  72.1960 287.9348 13.10370816 82244
ONEWEB-0416             
1 51625U 22012D   23283.89643683 -.00000362  00000+0 -10729-2 0  9994
2 51625  87.8889 230.9274 0001980  75.3720 284.7627 13.10378596 80948
ONEWEB-0422             
1 51626U 22012E   23283.81357004  .00000186  00000+0  44473-3 0  9992
2 51626  87.9187 200.7060 0002608  64.9107 295.2295 13.17650823 84709
ONEWEB-0423             
1 51627U 22012F   23283.80723741  .00000027  00000+0  37409-4 0  9993
2 51627  87.9255 200.6708 0001929  75.6536 284.4809 13.17647890 85885
ONEWEB-0425             
1 51628U 22012G   23283.90619384  .00000111  00000+0  28180-3 0  9991
2 51628  87.8886 230.9174 0002294  89.7173 270.4217 13.10380121 80941
ONEWEB-0428             
1 51629U 22012H   23283.88668411 -.00000829  00000+0 -24109-2 0  9998
2 51629  87.8883 230.9325 0002092  67.6663 292.4686 13.10374895 80903
